[{"OBJECT_NAME":"STARLINK-31215","OBJECT_ID":"2024-019V","EPOCH":"2026-03-09T11:40:09.524640","MEAN_MOTION":15.27588758,"ECCENTRICITY":6.504e-5,"INCLINATION":42.9994,"RA_OF_ASC_NODE":249.8653,"ARG_OF_PERICENTER":246.3308,"MEAN_ANOMALY":113.7475,"EPHEMERIS_TYPE":0,"CLASSIFICATION_TYPE":"U","NORAD_CAT_ID":58872,"ELEMENT_SET_NO":999,"REV_AT_EPOCH":11903,"BSTAR":0.00015458097,"MEAN_MOTION_DOT":3.995e-5,"MEAN_MOTION_DDOT":0},{"OBJECT_NAME":"NUSAT-48 (HENRIETTA LEAVITT)","OBJECT_ID":"2024-149AG","EPOCH":"2026-03-09T19:19:17.269536","MEAN_MOTION":15.29812597,"ECCENTRICITY":0.00027538,"INCLINATION":97.3923,"RA_OF_ASC_NODE":150.8264,"ARG_OF_PERICENTER":263.3026,"MEAN_ANOMALY":96.7901,"EPHEMERIS_TYPE":0,"CLASSIFICATION_TYPE":"U","NORAD_CAT_ID":60498,"ELEMENT_SET_NO":999,"REV_AT_EPOCH":8694,"BSTAR":0.00045211745,"MEAN_MOTION_DOT":0.00012988,"MEAN_MOTION_DDOT":0}]
